[
    {
        "Altitude(m)": 702678.975156502,
        "Argument of Periapsis(deg)": 0.0022780242373254137,
        "Eccentricity": 0.0,
        "Inclination(deg)": 45.0,
        "Latitude(deg)": 13.101842640645573,
        "Longitude(deg)": -126.74527623517251,
        "Mean Anomaly(deg)": 18.67024332949618,
        "RAAN(deg)": 319.9978496117084,
        "Satellite Name": "Constellation 1 1409",
        "Satellite Number": 1409,
        "Semi-Major Axis(m)": 7083131.272910544,
        "Time(s)": 38
    },
    {
        "Altitude(m)": 702679.5560619925,
        "Argument of Periapsis(deg)": 0.002337972243570819,
        "Eccentricity": 0.0,
        "Inclination(deg)": 45.0,
        "Latitude(deg)": 13.143873650863123,
        "Longitude(deg)": -126.704198654561,
        "Mean Anomaly(deg)": 18.730944469746067,
        "RAAN(deg)": 319.9977930225428,
        "Satellite Name": "Constellation 1 1409",
        "Satellite Number": 1409,
        "Semi-Major Axis(m)": 7083131.272910544,
        "Time(s)": 39
    },
    {
        "Altitude(m)": 702680.155294909,
        "Argument of Periapsis(deg)": 0.0023979202498162246,
        "Eccentricity": 0.0,
        "Inclination(deg)": 45.0,
        "Latitude(deg)": 13.185896615789247,
        "Longitude(deg)": -126.6631056642325,
        "Mean Anomaly(deg)": 18.791645609995953,
        "RAAN(deg)": 319.9977364333772,
        "Satellite Name": "Constellation 1 1409",
        "Satellite Number": 1409,
        "Semi-Major Axis(m)": 7083131.272910544,
        "Time(s)": 40
    },
    {
        "Altitude(m)": 702680.7728345173,
        "Argument of Periapsis(deg)": 0.00245786825606163,
        "Eccentricity": 0.0,
        "Inclination(deg)": 45.0,
        "Latitude(deg)": 13.227911505958739,
        "Longitude(deg)": -126.62199721101317,
        "Mean Anomaly(deg)": 18.85234675024584,
        "RAAN(deg)": 319.99767984421163,
        "Satellite Name": "Constellation 1 1409",
        "Satellite Number": 1409,
        "Semi-Major Axis(m)": 7083131.272910544,
        "Time(s)": 41
    },
    {
        "Altitude(m)": 702681.4086600087,
        "Argument of Periapsis(deg)": 0.002517816262307036,
        "Eccentricity": 0.0,
        "Inclination(deg)": 45.0,
        "Latitude(deg)": 13.269918291876355,
        "Longitude(deg)": -126.5808732417007,
        "Mean Anomaly(deg)": 18.91304789049578,
        "RAAN(deg)": 319.99762325504605,
        "Satellite Name": "Constellation 1 1409",
        "Satellite Number": 1409,
        "Semi-Major Axis(m)": 7083131.272910544,
        "Time(s)": 42
    },
    {
        "Altitude(m)": 702682.0627505052,
        "Argument of Periapsis(deg)": 0.0025777642685524413,
        "Eccentricity": 0.0,
        "Inclination(deg)": 45.0,
        "Latitude(deg)": 13.311916944016676,
        "Longitude(deg)": -126.53973370306406,
        "Mean Anomaly(deg)": 18.973749030745665,
        "RAAN(deg)": 319.9975666658805,
        "Satellite Name": "Constellation 1 1409",
        "Satellite Number": 1409,
        "Semi-Major Axis(m)": 7083131.272910544,
        "Time(s)": 43
    },
    {
        "Altitude(m)": 702682.735085045,
        "Argument of Periapsis(deg)": 0.002637712274797847,
        "Eccentricity": 0.0,
        "Inclination(deg)": 45.0,
        "Latitude(deg)": 13.35390743282419,
        "Longitude(deg)": -126.49857870994046,
        "Mean Anomaly(deg)": 19.03445017099555,
        "RAAN(deg)": 319.99751007671495,
        "Satellite Name": "Constellation 1 1409",
        "Satellite Number": 1409,
        "Semi-Major Axis(m)": 7083131.272910544,
        "Time(s)": 44
    },
    {
        "Altitude(m)": 702683.4256425917,
        "Argument of Periapsis(deg)": 0.0026976602810432526,
        "Eccentricity": 0.0,
        "Inclination(deg)": 45.0,
        "Latitude(deg)": 13.395889728712381,
        "Longitude(deg)": -126.45740787284713,
        "Mean Anomaly(deg)": 19.095151311245434,
        "RAAN(deg)": 319.9974534875494,
        "Satellite Name": "Constellation 1 1409",
        "Satellite Number": 1409,
        "Semi-Major Axis(m)": 7083131.272910544,
        "Time(s)": 45
    },
    {
        "Altitude(m)": 702684.1344020338,
        "Argument of Periapsis(deg)": 0.0027576082872886585,
        "Eccentricity": 0.0,
        "Inclination(deg)": 45.0,
        "Latitude(deg)": 13.437863802064971,
        "Longitude(deg)": -126.41622130656361,
        "Mean Anomaly(deg)": 19.155852451495374,
        "RAAN(deg)": 319.9973968983838,
        "Satellite Name": "Constellation 1 1409",
        "Satellite Number": 1409,
        "Semi-Major Axis(m)": 7083131.272910544,
        "Time(s)": 46
    },
    {
        "Altitude(m)": 702684.8613421898,
        "Argument of Periapsis(deg)": 0.0028175562935340644,
        "Eccentricity": 0.0,
        "Inclination(deg)": 45.0,
        "Latitude(deg)": 13.479829623234691,
        "Longitude(deg)": -126.37501895774335,
        "Mean Anomaly(deg)": 19.21655359174526,
        "RAAN(deg)": 319.9973403092182,
        "Satellite Name": "Constellation 1 1409",
        "Satellite Number": 1409,
        "Semi-Major Axis(m)": 7083131.272910544,
        "Time(s)": 47
    },
    {
        "Altitude(m)": 702685.6064417907,
        "Argument of Periapsis(deg)": 0.00287750429977947,
        "Eccentricity": 0.0,
        "Inclination(deg)": 45.0,
        "Latitude(deg)": 13.521787162543697,
        "Longitude(deg)": -126.3338007730109,
        "Mean Anomaly(deg)": 19.27725473199515,
        "RAAN(deg)": 319.9972837200527,
        "Satellite Name": "Constellation 1 1409",
        "Satellite Number": 1409,
        "Semi-Major Axis(m)": 7083131.272910544,
        "Time(s)": 48
    },
    {
        "Altitude(m)": 702686.369679505,
        "Argument of Periapsis(deg)": 0.002937452306024875,
        "Eccentricity": 0.0,
        "Inclination(deg)": 45.0,
        "Latitude(deg)": 13.563736390283287,
        "Longitude(deg)": -126.29256669896176,
        "Mean Anomaly(deg)": 19.337955872245086,
        "RAAN(deg)": 319.9972271308871,
        "Satellite Name": "Constellation 1 1409",
        "Satellite Number": 1409,
        "Semi-Major Axis(m)": 7083131.272910544,
        "Time(s)": 49
    },
    {
        "Altitude(m)": 702687.1510339108,
        "Argument of Periapsis(deg)": 0.0029974003122702807,
        "Eccentricity": 0.0,
        "Inclination(deg)": 45.0,
        "Latitude(deg)": 13.605677276713843,
        "Longitude(deg)": -126.25131668216244,
        "Mean Anomaly(deg)": 19.398657012494972,
        "RAAN(deg)": 319.9971705417216,
        "Satellite Name": "Constellation 1 1409",
        "Satellite Number": 1409,
        "Semi-Major Axis(m)": 7083131.272910544,
        "Time(s)": 50
    },
    {
        "Altitude(m)": 702687.950483527,
        "Argument of Periapsis(deg)": 0.0030573483185156866,
        "Eccentricity": 0.0,
        "Inclination(deg)": 45.0,
        "Latitude(deg)": 13.647609792064719,
        "Longitude(deg)": -126.21005066915018,
        "Mean Anomaly(deg)": 19.45935815274486,
        "RAAN(deg)": 319.99711395255594,
        "Satellite Name": "Constellation 1 1409",
        "Satellite Number": 1409,
        "Semi-Major Axis(m)": 7083131.272910544,
        "Time(s)": 51
    },
    {
        "Altitude(m)": 702688.7680067823,
        "Argument of Periapsis(deg)": 0.003117296324761092,
        "Eccentricity": 0.0,
        "Inclination(deg)": 45.0,
        "Latitude(deg)": 13.689533906534367,
        "Longitude(deg)": -126.16876877453011,
        "Mean Anomaly(deg)": 19.520059292994745,
        "RAAN(deg)": 319.99705736339035,
        "Satellite Name": "Constellation 1 1409",
        "Satellite Number": 1409,
        "Semi-Major Axis(m)": 7083131.272910544,
        "Time(s)": 52
    },
    {
        "Altitude(m)": 702689.6035820392,
        "Argument of Periapsis(deg)": 0.0031772443310064975,
        "Eccentricity": 0.0,
        "Inclination(deg)": 45.0,
        "Latitude(deg)": 13.731449590289317,
        "Longitude(deg)": -126.12747060858712,
        "Mean Anomaly(deg)": 19.58076043324468,
        "RAAN(deg)": 319.99700077422483,
        "Satellite Name": "Constellation 1 1409",
        "Satellite Number": 1409,
        "Semi-Major Axis(m)": 7083131.272910544,
        "Time(s)": 53
    },
    {
        "Altitude(m)": 702690.4571875903,
        "Argument of Periapsis(deg)": 0.0032371923372519038,
        "Eccentricity": 0.0,
        "Inclination(deg)": 45.0,
        "Latitude(deg)": 13.7733568134654,
        "Longitude(deg)": -126.08615628586792,
        "Mean Anomaly(deg)": 19.641461573494567,
        "RAAN(deg)": 319.99694418505925,
        "Satellite Name": "Constellation 1 1409",
        "Satellite Number": 1409,
        "Semi-Major Axis(m)": 7083131.272910544,
        "Time(s)": 54
    },
    {
        "Altitude(m)": 702691.3288016381,
        "Argument of Periapsis(deg)": 0.0032971403434973088,
        "Eccentricity": 0.0,
        "Inclination(deg)": 45.0,
        "Latitude(deg)": 13.815255546166782,
        "Longitude(deg)": -126.04482575279278,
        "Mean Anomaly(deg)": 19.702162713744457,
        "RAAN(deg)": 319.9968875958937,
        "Satellite Name": "Constellation 1 1409",
        "Satellite Number": 1409,
        "Semi-Major Axis(m)": 7083131.272910544,
        "Time(s)": 55
    },
    {
        "Altitude(m)": 702692.2184023227,
        "Argument of Periapsis(deg)": 0.0033570883497427146,
        "Eccentricity": 0.0,
        "Inclination(deg)": 45.0,
        "Latitude(deg)": 13.85714575846607,
        "Longitude(deg)": -126.0034789557528,
        "Mean Anomaly(deg)": 19.762863853994393,
        "RAAN(deg)": 319.9968310067281,
        "Satellite Name": "Constellation 1 1409",
        "Satellite Number": 1409,
        "Semi-Major Axis(m)": 7083131.272910544,
        "Time(s)": 56
    }
]